#cP2011 10 14  0  0  0.00000000      96 ORBIT IGS08 HLM  IGS
## 1657 432000.00000000   900.00000000 55848 0.0000000000000
+   31   G01G02G03G04G05G06G07G08G09G10G11G12G13G14G15G16G17
+        G18G19G20G21G22G23G25G26G27G28G29G30G31G32  0  0  0
+          0  0  0  0  0  0  0  0  0  0  0  0  0  0  0  0  0
+          0  0  0  0  0  0  0  0  0  0  0  0  0  0  0  0  0
+          0  0  0  0  0  0  0  0  0  0  0  0  0  0  0  0  0
++         3  2  2  2  2  2  2  3  3  2  2  2  2  2  2  2  2
++         2  2  2  2  2  2  2  2  3  2  2  2  2  2  0  0  0
++         0  0  0  0  0  0  0  0  0  0  0  0  0  0  0  0  0
++         0  0  0  0  0  0  0  0  0  0  0  0  0  0  0  0  0
++         0  0  0  0  0  0  0  0  0  0  0  0  0  0  0  0  0
%c G  cc GPS ccc cccc cccc cccc cccc ccccc ccccc ccccc ccccc
%c cc cc ccc ccc cccc cccc cccc cccc ccccc ccccc ccccc ccccc
%f  1.2500000  1.025000000  0.00000000000  0.000000000000000
%f  0.0000000  0.000000000  0.00000000000  0.000000000000000
%i    0    0    0    0      0      0      0      0         0
%i    0    0    0    0      0      0      0      0         0
/* FINAL ORBIT COMBINATION FROM WEIGHTED AVERAGE OF:        
/* cod emr esa gfz grg jpl mit ngs sio                      
/* REFERENCED TO IGS TIME (IGST) AND TO WEIGHTED MEAN POLE: 
/* PCV:IGS08_1657 OL/AL:FES2004  NONE     Y  ORB:CMB CLK:CMB
*  2011 10 14  5 15  0.00000000
PG01 -13842.662614   8031.469743  21184.271996     24.457734 10  7  4 132       
PG02  13961.734379  16590.959407 -15583.551389    360.716857  5  7  6  96       
PG03 -23540.704242 -11218.250679  -6259.839409    781.053500  5  5  5  76       
PG04   6632.492588  25159.517497  -4564.773950    259.907677  7  7  5  94       
PG05  17261.745902   4431.413962 -19745.111714   -231.430211  5  4  4 117       
PG06 -20751.413422 -14198.143773  -8807.859633    -49.991213  5  6  4 128       
PG07  -6983.647753  21363.890213 -13941.211758     31.660091  3  8  7 136       
PG08  -2030.220733  25735.394596  -4702.096366      0.023829  8  8  6 141       
PG09  14051.201447  -3591.216385  21705.838829    111.604059  8  7  8  95       
PG10    500.053249  17508.173259 -20082.410597    -16.127893  4  7  7 117       
PG11 -17081.068544   1210.567062  19995.512968   -194.562165  4  6  2 122       
PG12  23043.312508 -10717.962487   7413.144695     28.371633  6  7  6 141       
PG13 -13177.598464   9024.408786 -21373.989657    246.746312  6  6  6 147       
PG14  -7266.638450 -17561.618347  18793.101476    176.717397  6  9  6 128       
PG15  24919.586262   2831.976047   9025.564659   -102.668995  4  6  6 128       
PG16 -17675.740257  -3651.194684 -19571.449398   -203.232533  5  7  5 122       
PG17   7139.482115  17637.207663  18771.591914    170.754393  3  7  6 120       
PG18  14308.911675 -19931.553794  10026.935927    162.037436  2  8  4 137       
PG19 -24739.566682  -7297.088414   7065.500965   -194.050817  5  6  6 127       
PG20 -22435.807631  12621.768074   6245.916717     54.356165  5  7  3 124       
PG21   4695.842880 -23595.576764 -10121.715608   -177.755492  5  5  6 118       
PG22   1514.346367 -18694.919226  18945.552213    143.985190  5  8  4 109       
PG23 -21095.984448   3072.532089 -16044.234319    268.092602  5  6  6 123       
PG25  19448.054206 -17830.488043  -2933.239061     23.266535  5  6  6 131       
PG26  23103.483568  13444.190657  -2098.133548   -189.926557  4  5  5 126       
PG27  15517.666863   3714.124838  21941.197819    314.980479  7  7  9 160       
PG28  -5494.522583  18881.415108  18260.703046     75.404056  4  9  5  96       
PG29  13301.690618  -9765.288173 -20739.855675    248.228926  5  6  6  96       
PG30   5611.851556 -20748.234125 -16018.845835     69.777653  6  5  5 102       
PG31  -7850.898996 -24056.264384  -7496.386554    155.105004  5  6  5 114       
PG32 -22767.142481   3455.897122  13092.465137   -345.099198  7  7  7  87       
*  2011 10 14  5 30  0.00000000
PG01 -14299.284866   5620.253791  21652.541227     24.485281 10  7  5 139       
PG02  14056.861115  18266.492646 -13542.137810    360.718562  5  8  6  81       
PG03 -22685.920975 -11317.845353  -8855.534830    781.057457  5  5  5  80       
PG04   6351.426922  25552.119408  -1766.030358    259.917861  6  7  5  84       
PG05  15532.845736   5970.734003 -20740.107441   -231.434644  5  4  3 122       
PG06 -19560.384210 -14106.748845 -11271.252269    -49.984400  5  5  4 111       
PG07  -7410.390618  19684.228766 -16054.143336     31.662002  2  8  7 135       
PG08  -2268.050161  25035.332216  -7548.658338      0.023309  8  8  5 146       
PG09  14507.429278  -1035.217706  21676.664024    111.606617  8  7  8  96       
PG10  -1317.100556  18753.704080 -18835.131215    -16.129015  4  7  7 116       
PG11 -17940.893865   -970.843733  19286.360886   -194.565501  4  6  2 118       
PG12  22381.613833  -9937.978620  10070.901483     28.373648  6  6  6 141       
PG13 -15274.671444   7957.330281 -20379.791950    246.745264  6  6  5 149       
PG14  -5238.920193 -16741.799702  20165.375415    176.718867  6  9  5 139       
PG15  25660.061750   3370.842729   6392.617797   -102.667807  3  5  6 132       
PG16 -15887.975556  -5093.896822 -20720.908238   -203.234034  5  7  5 129       
PG17   5080.217201  16891.988171  20070.709886    170.752512  3  7  6 121       
PG18  15274.615986 -20281.323552   7457.051563    162.039170  2  8  5 140       
PG19 -25227.461377  -7780.736544   4333.744873   -194.054228  5  7  6 128       
PG20 -21986.415161  11791.630601   8864.085134     54.356750  4  6  2 125       
PG21   5239.208149 -22283.199944 -12508.435154   -177.757707  6  5  5 119       
PG22   3246.659437 -19834.103618  17490.273074    143.984727  4  8  4 117       
PG23 -22627.813244   2298.081226 -13988.197730    268.089556  5  7  5 124       
PG25  19733.820348 -17752.903873    -72.645632     23.268160  5  5  6 131       
PG26  22740.937289  13436.996849  -4943.265712   -189.938473  3  5  5 136       
PG27  15956.921062   5988.565068  21115.156708    314.983067  6  8  9 160       
PG28  -7095.498681  19912.580977  16450.487032     75.406873  4  9  5 103       
PG29  15406.552117  -8767.262484 -19702.811025    248.232092  6  6  6  89       
PG30   6908.018684 -21790.101230 -13945.780901     69.773115  5  5  5 105       
PG31  -7750.727233 -24803.704399  -4703.340446    155.109877  5  6  5 125       
PG32 -21574.038485   2364.746100  15260.832937   -345.104429  7  7  7  80       
*  2011 10 14  5 45  0.00000000
PG01 -14888.004237   3204.983390  21747.805727     24.512784  9  6  6 140       
PG02  14179.076102  19697.651872 -11272.124155    360.720087  4  8  6  92       
PG03 -21562.911100 -11407.434123 -11303.787808    781.062159  5  5  4  76       
PG04   6018.084869  25646.075169   1063.678451    259.928147  6  7  5  85       
PG05  13816.265650   7659.673670 -21379.453015   -231.439089  5  5  3 127       
PG06 -18106.278075 -14008.445754 -13541.956311    -49.977678  5  5  3 106       
PG07  -7973.376055  17811.266384 -17887.659423     31.664008  2  7  7 131       
PG08  -2587.065105  24032.552538 -10260.612703      0.023107  7  7  4 144       
PG09  15095.251641   1466.493097  21254.671469    111.607456  7  6  7  84       
PG10  -2954.493921  19985.722555 -17265.639565    -16.129462  4  7  7 119       
PG11 -18839.981787  -3023.755366  18237.679729   -194.568292  4  6  2 122       
PG12  21544.514967  -8929.409911  12553.736953     28.375580  5  6  6 142       
PG13 -17306.967258   7060.670735 -19039.712444    246.743089  7  6  5 148       
PG14  -3041.783206 -15988.628792  21197.126526    176.720549  6  9  5 133       
PG15  26136.350682   3786.790811   3650.849997   -102.666613  3  5  6 136       
PG16 -14096.976669  -6706.369891 -21515.537731   -203.236036  5  7  4 121       
PG17   2863.359305  16214.654239  21030.618969    170.750897  3  7  6 123       
PG18  16004.051188 -20476.391729   4757.434481    162.040981  2  8  5 141       
PG19 -25452.552660  -8119.798659   1528.990952   -194.057858  6  7  6 126       
PG20 -21373.006755  10737.265360  11328.239326     54.357604  4  5    118       
PG21   5897.472494 -20740.411422 -14667.940970   -177.760165  6  5  5 124       
PG22   4790.255622 -20935.352726  15736.808807    143.984550  4  7  4 106       
PG23 -23964.567270   1683.066353 -11695.206217    268.086872  4  7  5 124       
PG25  19787.652355 -17467.532336   2789.199135     23.269745  5  5  6 118       
PG26  22090.329806  13330.635136  -7706.291812   -189.950554  3  5  5 139       
PG27  16497.069153   8127.637882  19948.347984    314.987215  6  7  9 163       
PG28  -8475.691329  20890.821092  14364.278379     75.409703  4  9  5 120       
PG29  17431.415319  -7926.356511 -18324.550568    248.234961  5  7  6  95       
PG30   7988.419810 -22715.478137 -11638.503785     69.768233  5  5  5 124       
PG31  -7625.671687 -25237.847197  -1827.926653    155.114419  5  6  5 110       
PG32 -20257.092335   1077.887482  17165.751205   -345.109947  7  7  7  89       
EOF
